[{"OBJECT_NAME":"STARLINK-33814","OBJECT_ID":"2025-076P","EPOCH":"2026-03-09T00:53:51.705600","MEAN_MOTION":15.27607641,"ECCENTRICITY":0.0001404,"INCLINATION":43.0039,"RA_OF_ASC_NODE":325.1199,"ARG_OF_PERICENTER":269.9064,"MEAN_ANOMALY":90.1627,"EPHEMERIS_TYPE":0,"CLASSIFICATION_TYPE":"U","NORAD_CAT_ID":63582,"ELEMENT_SET_NO":999,"REV_AT_EPOCH":5173,"BSTAR":0.0017192094,"MEAN_MOTION_DOT":0.00047391,"MEAN_MOTION_DDOT":0},{"OBJECT_NAME":"UNKNOWN","OBJECT_ID":"","EPOCH":"2026-02-22T00:08:45.737952","MEAN_MOTION":14.15044008,"ECCENTRICITY":0.0509514,"INCLINATION":65.771,"RA_OF_ASC_NODE":261.596,"ARG_OF_PERICENTER":328.3661,"MEAN_ANOMALY":28.7697,"EPHEMERIS_TYPE":0,"CLASSIFICATION_TYPE":"U","NORAD_CAT_ID":87456,"ELEMENT_SET_NO":999,"REV_AT_EPOCH":62157,"BSTAR":0.00055206,"MEAN_MOTION_DOT":3.756e-5,"MEAN_MOTION_DDOT":0}]
